[{"OBJECT_NAME":"STARLINK-2031","OBJECT_ID":"2021-012AE","EPOCH":"2026-03-09T22:49:12.010080","MEAN_MOTION":15.30088905,"ECCENTRICITY":0.0001163,"INCLINATION":53.1588,"RA_OF_ASC_NODE":48.339,"ARG_OF_PERICENTER":82.9561,"MEAN_ANOMALY":277.1572,"EPHEMERIS_TYPE":0,"CLASSIFICATION_TYPE":"U","NORAD_CAT_ID":47648,"ELEMENT_SET_NO":999,"REV_AT_EPOCH":28034,"BSTAR":0.0019887942,"MEAN_MOTION_DOT":0.00058807,"MEAN_MOTION_DDOT":0},{"OBJECT_NAME":"OBJECT H","OBJECT_ID":"2025-055H","EPOCH":"2026-03-09T23:29:50.051328","MEAN_MOTION":15.30330066,"ECCENTRICITY":0.00075967,"INCLINATION":97.636,"RA_OF_ASC_NODE":211.9572,"ARG_OF_PERICENTER":140.4354,"MEAN_ANOMALY":219.7441,"EPHEMERIS_TYPE":0,"CLASSIFICATION_TYPE":"U","NORAD_CAT_ID":63298,"ELEMENT_SET_NO":999,"REV_AT_EPOCH":5423,"BSTAR":0.0015582864,"MEAN_MOTION_DOT":0.00045901,"MEAN_MOTION_DDOT":0}]
